[{"OBJECT_NAME":"STARLINK-31578","OBJECT_ID":"2024-057B","EPOCH":"2026-03-08T15:21:37.066176","MEAN_MOTION":15.27576516,"ECCENTRICITY":9.437e-5,"INCLINATION":42.9986,"RA_OF_ASC_NODE":192.5598,"ARG_OF_PERICENTER":263.492,"MEAN_ANOMALY":96.5824,"EPHEMERIS_TYPE":0,"CLASSIFICATION_TYPE":"U","NORAD_CAT_ID":59321,"ELEMENT_SET_NO":999,"REV_AT_EPOCH":10968,"BSTAR":2.3922819e-5,"MEAN_MOTION_DOT":3.96e-6,"MEAN_MOTION_DDOT":0},{"OBJECT_NAME":"SL-24 DEB","OBJECT_ID":"2013-066AL","EPOCH":"2026-03-09T22:28:39.180576","MEAN_MOTION":15.26992446,"ECCENTRICITY":0.00036318,"INCLINATION":97.3978,"RA_OF_ASC_NODE":75.9402,"ARG_OF_PERICENTER":273.216,"MEAN_ANOMALY":86.8663,"EPHEMERIS_TYPE":0,"CLASSIFICATION_TYPE":"U","NORAD_CAT_ID":39450,"ELEMENT_SET_NO":999,"REV_AT_EPOCH":67244,"BSTAR":0.00070559472,"MEAN_MOTION_DOT":0.00018651,"MEAN_MOTION_DDOT":0}]
